{
  "type": "FeatureCollection",
  "features": [
    {
      "type": "Feature",
      "properties": {
        "norad_id": 34619,
        "name": "COSMOS 2251 DEB",
        "group": "cosmos-2251-debris",
        "lat": 46.401088964561616,
        "lon": -168.81873972436074,
        "alt_km": 727.2197551471954,
        "timestamp": "2025-12-26T09:30:54.034786+00:00",
        "meta_object_name": "COSMOS 2251 DEB",
        "meta_object_id": "1993-036WQ",
        "meta_epoch": "2025-12-26T04:22:22.499904",
        "meta_mean_motion": 14.64678138,
        "meta_eccentricity": 0.0094728,
        "meta_inclination": 74.0429,
        "meta_ra_of_asc_node": 174.1069,
        "meta_arg_of_pericenter": 265.9046,
        "meta_mean_anomaly": 93.129,
        "meta_ephemeris_type": 0,
        "meta_classification_type": "U",
        "meta_norad_cat_id": 34619,
        "meta_element_set_no": 999,
        "meta_rev_at_epoch": 89495,
        "meta_bstar": 0.00023817,
        "meta_mean_motion_dot": 1.318e-05,
        "meta_mean_motion_ddot": 0,
        "tle_line1": "1 34619U 93036WQ  25360.18220486  .00001318  00000+0  23817-3 0  9997",
        "tle_line2": "2 34619  74.0429 174.1069 0094728 265.9046  93.1290 14.64678138894958"
      },
      "geometry": {
        "type": "Point",
        "coordinates": [
          -168.81873972436074,
          46.401088964561616
        ]
      }
    },
    {
      "type": "Feature",
      "properties": {
        "norad_id": 34620,
        "name": "COSMOS 2251 DEB",
        "group": "cosmos-2251-debris",
        "lat": -62.46943687765759,
        "lon": 47.214915115779256,
        "alt_km": 681.6018784713224,
        "timestamp": "2025-12-26T09:30:54.034797+00:00",
        "meta_object_name": "COSMOS 2251 DEB",
        "meta_object_id": "1993-036WR",
        "meta_epoch": "2025-12-25T20:46:47.004384",
        "meta_mean_motion": 14.49303193,
        "meta_eccentricity": 0.0079449,
        "meta_inclination": 74.0509,
        "meta_ra_of_asc_node": 194.9359,
        "meta_arg_of_pericenter": 228.3871,
        "meta_mean_anomaly": 131.0466,
        "meta_ephemeris_type": 0,
        "meta_classification_type": "U",
        "meta_norad_cat_id": 34620,
        "meta_element_set_no": 999,
        "meta_rev_at_epoch": 87017,
        "meta_bstar": 0.0023679,
        "meta_mean_motion_dot": 9.392e-05,
        "meta_mean_motion_ddot": 0,
        "tle_line1": "1 34620U 93036WR  25359.86582181  .00009392  00000+0  23679-2 0  9990",
        "tle_line2": "2 34620  74.0509 194.9359 0079449 228.3871 131.0466 14.49303193870177"
      },
      "geometry": {
        "type": "Point",
        "coordinates": [
          47.214915115779256,
          -62.46943687765759
        ]
      }
    },
    {
      "type": "Feature",
      "properties": {
        "norad_id": 34622,
        "name": "COSMOS 2251 DEB",
        "group": "cosmos-2251-debris",
        "lat": -8.373372266214995,
        "lon": -79.90523235790678,
        "alt_km": 747.5481895843732,
        "timestamp": "2025-12-26T09:30:54.034807+00:00",
        "meta_object_name": "COSMOS 2251 DEB",
        "meta_object_id": "1993-036WT",
        "meta_epoch": "2025-12-24T20:40:50.649312",
        "meta_mean_motion": 14.22091723,
        "meta_eccentricity": 0.01049596,
        "meta_inclination": 74.0422,
        "meta_ra_of_asc_node": 285.2613,
        "meta_arg_of_pericenter": 4.8683,
        "meta_mean_anomaly": 52.5969,
        "meta_ephemeris_type": 0,
        "meta_classification_type": "U",
        "meta_norad_cat_id": 34622,
        "meta_element_set_no": 999,
        "meta_rev_at_epoch": 86632,
        "meta_bstar": 0.00082163825,
        "meta_mean_motion_dot": 1.899e-05,
        "meta_mean_motion_ddot": 0,
        "tle_line1": "1 34622U 93036WT  25358.86169733  .00001899  00000+0  82164-3 0  9994",
        "tle_line2": "2 34622  74.0422 285.2613 0104959   4.8683  52.5969 14.22091723866324"
      },
      "geometry": {
        "type": "Point",
        "coordinates": [
          -79.90523235790678,
          -8.373372266214995
        ]
      }
    },
    {
      "type": "Feature",
      "properties": {
        "norad_id": 34626,
        "name": "COSMOS 2251 DEB",
        "group": "cosmos-2251-debris",
        "lat": 54.040673390903535,
        "lon": 94.11913171417288,
        "alt_km": 651.5872040876047,
        "timestamp": "2025-12-26T09:30:54.034818+00:00",
        "meta_object_name": "COSMOS 2251 DEB",
        "meta_object_id": "1993-036WX",
        "meta_epoch": "2025-12-25T23:30:52.974720",
        "meta_mean_motion": 14.72359857,
        "meta_eccentricity": 0.0027234,
        "meta_inclination": 74.0485,
        "meta_ra_of_asc_node": 298.149,
        "meta_arg_of_pericenter": 22.8129,
        "meta_mean_anomaly": 51.7921,
        "meta_ephemeris_type": 0,
        "meta_classification_type": "U",
        "meta_norad_cat_id": 34626,
        "meta_element_set_no": 999,
        "meta_rev_at_epoch": 89339,
        "meta_bstar": 0.0010738,
        "meta_mean_motion_dot": 6.81e-05,
        "meta_mean_motion_ddot": 0,
        "tle_line1": "1 34626U 93036WX  25359.97977980  .00006810  00000+0  10738-2 0  9997",
        "tle_line2": "2 34626  74.0485 298.1490 0027234  22.8129  51.7921 14.72359857893394"
      },
      "geometry": {
        "type": "Point",
        "coordinates": [
          94.11913171417288,
          54.040673390903535
        ]
      }
    },
    {
      "type": "Feature",
      "properties": {
        "norad_id": 34634,
        "name": "COSMOS 2251 DEB",
        "group": "cosmos-2251-debris",
        "lat": -13.256355896688396,
        "lon": -167.02087629903903,
        "alt_km": 706.5125986846078,
        "timestamp": "2025-12-26T09:30:54.034828+00:00",
        "meta_object_name": "COSMOS 2251 DEB",
        "meta_object_id": "1993-036XF",
        "meta_epoch": "2025-12-26T02:17:44.132352",
        "meta_mean_motion": 14.55692956,
        "meta_eccentricity": 0.0043654,
        "meta_inclination": 74.0512,
        "meta_ra_of_asc_node": 9.6855,
        "meta_arg_of_pericenter": 112.9861,
        "meta_mean_anomaly": 304.4596,
        "meta_ephemeris_type": 0,
        "meta_classification_type": "U",
        "meta_norad_cat_id": 34634,
        "meta_element_set_no": 999,
        "meta_rev_at_epoch": 88976,
        "meta_bstar": 0.00029034,
        "meta_mean_motion_dot": 1.256e-05,
        "meta_mean_motion_ddot": 0,
        "tle_line1": "1 34634U 93036XF  25360.09564968  .00001256  00000+0  29034-3 0  9998",
        "tle_line2": "2 34634  74.0512   9.6855 0043654 112.9861 304.4596 14.55692956889765"
      },
      "geometry": {
        "type": "Point",
        "coordinates": [
          -167.02087629903903,
          -13.256355896688396
        ]
      }
    },
    {
      "type": "Feature",
      "properties": {
        "norad_id": 34635,
        "name": "COSMOS 2251 DEB",
        "group": "cosmos-2251-debris",
        "lat": -40.81400725144136,
        "lon": 30.0173161915841,
        "alt_km": 689.2877142629168,
        "timestamp": "2025-12-26T09:30:54.034839+00:00",
        "meta_object_name": "COSMOS 2251 DEB",
        "meta_object_id": "1993-036XG",
        "meta_epoch": "2025-12-25T22:32:29.783904",
        "meta_mean_motion": 14.68422636,
        "meta_eccentricity": 0.002762,
        "meta_inclination": 74.0453,
        "meta_ra_of_asc_node": 45.2043,
        "meta_arg_of_pericenter": 109.1526,
        "meta_mean_anomaly": 312.222,
        "meta_ephemeris_type": 0,
        "meta_classification_type": "U",
        "meta_norad_cat_id": 34635,
        "meta_element_set_no": 999,
        "meta_rev_at_epoch": 73413,
        "meta_bstar": 0.00099638,
        "meta_mean_motion_dot": 5.772e-05,
        "meta_mean_motion_ddot": 0,
        "tle_line1": "1 34635U 93036XG  25359.93923361  .00005772  00000+0  99638-3 0  9990",
        "tle_line2": "2 34635  74.0453  45.2043 0027620 109.1526 312.2220 14.68422636734137"
      },
      "geometry": {
        "type": "Point",
        "coordinates": [
          30.0173161915841,
          -40.81400725144136
        ]
      }
    },
    {
      "type": "Feature",
      "properties": {
        "norad_id": 34637,
        "name": "COSMOS 2251 DEB",
        "group": "cosmos-2251-debris",
        "lat": 68.48576906036016,
        "lon": -151.40129144163268,
        "alt_km": 658.0235111689735,
        "timestamp": "2025-12-26T09:30:54.034849+00:00",
        "meta_object_name": "COSMOS 2251 DEB",
        "meta_object_id": "1993-036XJ",
        "meta_epoch": "2025-12-25T15:38:05.883072",
        "meta_mean_motion": 14.6020378,
        "meta_eccentricity": 0.0048752,
        "meta_inclination": 74.0494,
        "meta_ra_of_asc_node": 76.5319,
        "meta_arg_of_pericenter": 143.5669,
        "meta_mean_anomaly": 6.691,
        "meta_ephemeris_type": 0,
        "meta_classification_type": "U",
        "meta_norad_cat_id": 34637,
        "meta_element_set_no": 999,
        "meta_rev_at_epoch": 88715,
        "meta_bstar": 0.00086458,
        "meta_mean_motion_dot": 4.21e-05,
        "meta_mean_motion_ddot": 0,
        "tle_line1": "1 34637U 93036XJ  25359.65145698  .00004210  00000+0  86458-3 0  9992",
        "tle_line2": "2 34637  74.0494  76.5319 0048752 143.5669   6.6910 14.60203780887156"
      },
      "geometry": {
        "type": "Point",
        "coordinates": [
          -151.40129144163268,
          68.48576906036016
        ]
      }
    }
  ]
}